GORIZONT 25             
1 21922U 92017A   08209.55841177 -.00000133  00000-0  10000-3 0   287
2 21922  10.8414  45.5868 0025121 288.1354  82.3691  0.99844151 59705
GORIZONT 26             
1 22041U 92043A   08208.67010596  .00000067  00000-0  10000-3 0  7062
2 22041  10.6809  46.9485 0031059  94.7114 265.6984  0.99242029 58645
GORIZONT 27             
1 22245U 92082A   08209.66025488  .00000080  00000-0  10000-3 0  3608
2 22245  10.5876  48.2461 0014791 208.5259 151.4432  1.00156542 61698
GORIZONT 28             
1 22880U 93069A   08210.60657934 -.00000375  00000-0  10000-3 0  9303
2 22880  10.0909  51.6132 0000983 205.2348  25.5377  1.00273789 54020
GORIZONT 29             
1 22907U 93072A   08210.47819731 -.00000279  00000-0  10000-3 0  5609
2 22907  10.0626  51.7438 0013166 192.4916 167.5249  1.00129404 53782
GORIZONT 30             
1 23108U 94030A   08209.53089398 -.00000237  00000-0  10000-3 0  3995
2 23108   9.8998  53.1444 0003191 139.3987 220.6662  1.00380247 51975
GORIZONT 31             
1 23775U 96005A   08210.02563937 -.00000273  00000-0  10000-3 0  7063
2 23775   8.8147  59.0407 0020902  59.5138 300.7382  0.99886424 45791
GORIZONT 32             
1 23880U 96034A   08210.93307995 -.00000130  00000-0  10000-3 0  9909
2 23880   8.6752  60.2459 0001515 117.1727  91.1657  1.00269218 44595
GORIZONT 33             
1 26372U 00029A   08210.37420535 -.00000361  00000-0  10000-3 0  3934
2 26372   5.8862  69.4332 0002011 332.3242 165.8442  1.00206588 29923
